[{"OBJECT_NAME":"GEESAT-6 05","OBJECT_ID":"2025-214F","EPOCH":"2026-03-09T22:35:26.117664","MEAN_MOTION":14.83005779,"ECCENTRICITY":0.0012614,"INCLINATION":49.9792,"RA_OF_ASC_NODE":48.1153,"ARG_OF_PERICENTER":192.2595,"MEAN_ANOMALY":167.8037,"EPHEMERIS_TYPE":0,"CLASSIFICATION_TYPE":"U","NORAD_CAT_ID":65717,"ELEMENT_SET_NO":999,"REV_AT_EPOCH":2477,"BSTAR":0.00036224871,"MEAN_MOTION_DOT":2.753e-5,"MEAN_MOTION_DDOT":0},{"OBJECT_NAME":"COSMOS 2251 DEB","OBJECT_ID":"1993-036CD","EPOCH":"2026-03-09T11:51:35.213184","MEAN_MOTION":14.81454628,"ECCENTRICITY":0.00272067,"INCLINATION":73.9952,"RA_OF_ASC_NODE":87.5179,"ARG_OF_PERICENTER":275.6841,"MEAN_ANOMALY":236.5427,"EPHEMERIS_TYPE":0,"CLASSIFICATION_TYPE":"U","NORAD_CAT_ID":33836,"ELEMENT_SET_NO":999,"REV_AT_EPOCH":65372,"BSTAR":0.0012644461,"MEAN_MOTION_DOT":9.946e-5,"MEAN_MOTION_DDOT":0}]
